GSAT0222 (GALILEO 26)   
1 43565U 18060B   22358.15479084 -.00000065  00000+0  00000+0 0  9996
2 43565  57.2340  16.0566 0005065 279.8684  80.1256  1.70475733 27547
GSAT0219 (GALILEO 23)   
1 43566U 18060C   22358.37532741 -.00000066  00000+0  00000+0 0  9992
2 43566  57.2347  16.0528 0004745 280.6833  79.3135  1.70475743 27528
GSAT0220 (GALILEO 24)   
1 43567U 18060D   22356.83584690 -.00000060  00000+0  00000+0 0  9996
2 43567  57.2341  16.0950 0004894 277.4423  82.5585  1.70475449 27489
BEIDOU-3 M13            
1 43622U 18072A   22358.61880637 -.00000005  00000+0  00000+0 0  9998
2 43622  55.5986 104.9702 0005028 274.7040 119.5493  1.86231416 28991
BEIDOU-3 M14            
1 43623U 18072B   22358.43726017 -.00000005  00000+0  00000+0 0  9990
2 43623  55.5998 104.9681 0002223 313.8893  48.8902  1.86231435 28996
GPS BIII-1              
1 43873U 18109A   22359.12480175  .00000046  00000+0  00000+0 0  9991
2 43873  55.1298 142.3672 0022657 188.1706 166.7440  2.00557042 29559
METEOR-M2 2             
1 44387U 19038A   22359.16785117  .00000038  00000+0  36157-4 0  9990
2 44387  98.7506 318.6657 0002370  83.8318 276.3144 14.23736398180543
GPS BIII-2              
1 44506U 19056A   22358.76950411 -.00000067  00000+0  00000+0 0  9995
2 44506  55.7541  21.4891 0029853 186.0672 172.9384  2.00559828 24582
BEIDOU-3 M23            
1 44542U 19061A   22358.27626522  .00000080  00000+0  00000+0 0  9994
2 44542  54.5347 225.6698 0008906 359.0122   1.0855  1.86231408 22121
BEIDOU-3 M24            
1 44543U 19061B   22358.15968139  .00000082  00000+0  00000+0 0  9997
2 44543  54.5326 225.6442 0005852 354.0390 199.4371  1.86231938 22117
BEIDOU-3 M21            
1 44793U 19078A   22358.39496631 -.00000073  00000+0  10000-3 0  9997
2 44793  54.8953 344.0732 0006113 358.9093 184.9816  1.86232296 20989
BEIDOU-3 M22            
1 44794U 19078B   22359.05813167 -.00000075  00000+0  00000+0 0  9996
2 44794  54.8690 344.0382 0004259 346.6026 193.9049  1.86232756 20998
ELEKTRO-L 3             
1 44903U 19095A   22359.42704073 -.00000088  00000+0  00000+0 0  9997
2 44903   0.0559 215.0951 0001207  25.6008  82.9477  1.00270999 10965
GPS BIII-3              
1 45854U 20041A   22358.53671644 -.00000033  00000+0  00000+0 0  9994
2 45854  55.6716  78.7696 0029552 183.6725 307.8024  2.00567146 18550
GPS BIII-4              
1 46826U 20078A   22358.14550720  .00000022  00000+0  00000+0 0  9999
2 46826  54.4488 262.3955 0025009 189.7478 355.6140  2.00564725 16016
GSAT0223 (GALILEO 27)   
1 49809U 21116A   22359.03604608 -.00000069  00000+0  00000+0 0  9993
2 49809  57.2265  15.9324 0003094 232.1285 128.3214  1.70475620  6528
GSAT0224 (GALILEO 28)   
1 49810U 21116B   22359.43741336 -.00000070  00000+0  00000+0 0  9991
2 49810  57.2276  15.9195 0002401 238.8274 120.4246  1.70475633  6555
